{"type": "FeatureCollection", "features": [ {"type": "Feature", "properties": {"norad_id": 30035, "name": "FENGYUN 1C DEB", "group": "fengyun-1c-debris", "lat": -72.33315203639732, "lon": -61.94629023188035, "alt_km": 818.3361193051906, "timestamp": "2025-12-17T23:38:07.127231+00:00", "meta": {"OBJECT_NAME": "FENGYUN 1C DEB", "OBJECT_ID": "1999-025NL", "EPOCH": "2025-12-17T07:49:33.379392", "MEAN_MOTION": 14.36977137, "ECCENTRICITY": 0.01154591, "INCLINATION": 99.271, "RA_OF_ASC_NODE": 266.4911, "ARG_OF_PERICENTER": 48.6734, "MEAN_ANOMALY": 71.8553, "EPHEMERIS_TYPE": 0, "CLASSIFICATION_TYPE": "U", "NORAD_CAT_ID": 30035, "ELEMENT_SET_NO": 999, "REV_AT_EPOCH": 99189, "BSTAR": 6.5945812e-05, "MEAN_MOTION_DOT": 1.58e-06, "MEAN_MOTION_DDOT": 0}, "tle": {"line1": "1 30035U 99025NL  25351.32608078  .00000158  00000+0  65946-4 0  9993", "line2": "2 30035  99.2710 266.4911 0115459  48.6734  71.8553 14.36977137991890"}}, "geometry": {"type": "Point", "coordinates": [-61.94629023188035, -72.33315203639732]}}, {"type": "Feature", "properties": {"norad_id": 30036, "name": "FENGYUN 1C DEB", "group": "fengyun-1c-debris", "lat": -10.9113626346665, "lon": -162.65728774765657, "alt_km": 606.9862395782557, "timestamp": "2025-12-17T23:38:07.127241+00:00", "meta": {"OBJECT_NAME": "FENGYUN 1C DEB", "OBJECT_ID": "1999-025NM", "EPOCH": "2025-12-17T13:29:51.734112", "MEAN_MOTION": 14.46198139, "ECCENTRICITY": 0.01902123, "INCLINATION": 98.2525, "RA_OF_ASC_NODE": 18.5345, "ARG_OF_PERICENTER": 192.9174, "MEAN_ANOMALY": 320.1539, "EPHEMERIS_TYPE": 0, "CLASSIFICATION_TYPE": "U", "NORAD_CAT_ID": 30036, "ELEMENT_SET_NO": 999, "REV_AT_EPOCH": 99246, "BSTAR": 0.00029255481, "MEAN_MOTION_DOT": 1.258e-05, "MEAN_MOTION_DDOT": 0}, "tle": {"line1": "1 30036U 99025NM  25351.56240433  .00001258  00000+0  29255-3 0  9991", "line2": "2 30036  98.2525  18.5345 0190212 192.9174 320.1539 14.46198139992468"}}, "geometry": {"type": "Point", "coordinates": [-162.65728774765657, -10.9113626346665]}}, {"type": "Feature", "properties": {"norad_id": 30037, "name": "FENGYUN 1C DEB", "group": "fengyun-1c-debris", "lat": -3.727681896554939, "lon": -31.90413248418661, "alt_km": 689.4739751763336, "timestamp": "2025-12-17T23:38:07.127251+00:00", "meta": {"OBJECT_NAME": "FENGYUN 1C DEB", "OBJECT_ID": "1999-025NN", "EPOCH": "2025-12-17T12:29:05.417376", "MEAN_MOTION": 14.34125131, "ECCENTRICITY": 0.01742408, "INCLINATION": 98.3838, "RA_OF_ASC_NODE": 327.0946, "ARG_OF_PERICENTER": 40.9344, "MEAN_ANOMALY": 79.4777, "EPHEMERIS_TYPE": 0, "CLASSIFICATION_TYPE": "U", "NORAD_CAT_ID": 30037, "ELEMENT_SET_NO": 999, "REV_AT_EPOCH": 98856, "BSTAR": 0.00019362203, "MEAN_MOTION_DOT": 5.96e-06, "MEAN_MOTION_DDOT": 0}, "tle": {"line1": "1 30037U 99025NN  25351.52020159  .00000596  00000+0  19362-3 0  9991", "line2": "2 30037  98.3838 327.0946 0174240  40.9344  79.4777 14.34125131988569"}}, "geometry": {"type": "Point", "coordinates": [-31.90413248418661, -3.727681896554939]}}, {"type": "Feature", "properties": {"norad_id": 30038, "name": "FENGYUN 1C DEB", "group": "fengyun-1c-debris", "lat": 50.95085881883331, "lon": 169.9488182546484, "alt_km": 615.271127538359, "timestamp": "2025-12-17T23:38:07.127262+00:00", "meta": {"OBJECT_NAME": "FENGYUN 1C DEB", "OBJECT_ID": "1999-025NP", "EPOCH": "2025-12-16T22:17:55.320864", "MEAN_MOTION": 14.39303712, "ECCENTRICITY": 0.02580048, "INCLINATION": 98.3685, "RA_OF_ASC_NODE": 338.4623, "ARG_OF_PERICENTER": 90.2684, "MEAN_ANOMALY": 329.1359, "EPHEMERIS_TYPE": 0, "CLASSIFICATION_TYPE": "U", "NORAD_CAT_ID": 30038, "ELEMENT_SET_NO": 999, "REV_AT_EPOCH": 98951, "BSTAR": 0.00021649572, "MEAN_MOTION_DOT": 9.43e-06, "MEAN_MOTION_DDOT": 0}, "tle": {"line1": "1 30038U 99025NP  25350.92911251  .00000943  00000+0  21650-3 0  9996", "line2": "2 30038  98.3685 338.4623 0258004  90.2684 329.1359 14.39303712989519"}}, "geometry": {"type": "Point", "coordinates": [169.9488182546484, 50.95085881883331]}}, {"type": "Feature", "properties": {"norad_id": 30040, "name": "FENGYUN 1C DEB", "group": "fengyun-1c-debris", "lat": -31.90548241334162, "lon": -177.03206146203738, "alt_km": 771.7160517623597, "timestamp": "2025-12-17T23:38:07.127272+00:00", "meta": {"OBJECT_NAME": "FENGYUN 1C DEB", "OBJECT_ID": "1999-025NR", "EPOCH": "2025-12-17T14:52:30.448704", "MEAN_MOTION": 14.37165726, "ECCENTRICITY": 0.00322803, "INCLINATION": 98.2331, "RA_OF_ASC_NODE": 7.7903, "ARG_OF_PERICENTER": 297.9762, "MEAN_ANOMALY": 187.1821, "EPHEMERIS_TYPE": 0, "CLASSIFICATION_TYPE": "U", "NORAD_CAT_ID": 30040, "ELEMENT_SET_NO": 999, "REV_AT_EPOCH": 97998, "BSTAR": 0.001308807, "MEAN_MOTION_DOT": 3.876e-05, "MEAN_MOTION_DDOT": 0}, "tle": {"line1": "1 30040U 99025NR  25351.61979686  .00003876  00000+0  13088-2 0  9995", "line2": "2 30040  98.2331   7.7903 0032280 297.9762 187.1821 14.37165726979980"}}, "geometry": {"type": "Point", "coordinates": [-177.03206146203738, -31.90548241334162]}}, {"type": "Feature", "properties": {"norad_id": 30041, "name": "FENGYUN 1C DEB", "group": "fengyun-1c-debris", "lat": 62.343383466376395, "lon": 80.21770847966253, "alt_km": 861.2741505028062, "timestamp": "2025-12-17T23:38:07.127282+00:00", "meta": {"OBJECT_NAME": "FENGYUN 1C DEB", "OBJECT_ID": "1999-025NS", "EPOCH": "2025-12-17T06:35:58.208928", "MEAN_MOTION": 14.13193654, "ECCENTRICITY": 0.00349947, "INCLINATION": 99.4671, "RA_OF_ASC_NODE": 98.0338, "ARG_OF_PERICENTER": 204.5614, "MEAN_ANOMALY": 210.3846, "EPHEMERIS_TYPE": 0, "CLASSIFICATION_TYPE": "U", "NORAD_CAT_ID": 30041, "ELEMENT_SET_NO": 999, "REV_AT_EPOCH": 97351, "BSTAR": 0.00041349475, "MEAN_MOTION_DOT": 7.29e-06, "MEAN_MOTION_DDOT": 0}, "tle": {"line1": "1 30041U 99025NS  25351.27497927  .00000729  00000+0  41349-3 0  9997", "line2": "2 30041  99.4671  98.0338 0034994 204.5614 210.3846 14.13193654973514"}}, "geometry": {"type": "Point", "coordinates": [80.21770847966253, 62.343383466376395]}}, {"type": "Feature", "properties": {"norad_id": 30043, "name": "FENGYUN 1C DEB", "group": "fengyun-1c-debris", "lat": -80.54058539935741, "lon": 155.527705860344, "alt_km": 1009.0571722907152, "timestamp": "2025-12-17T23:38:07.127293+00:00", "meta": {"OBJECT_NAME": "FENGYUN 1C DEB", "OBJECT_ID": "1999-025NU", "EPOCH": "2025-12-17T05:30:13.111488", "MEAN_MOTION": 14.23596953, "ECCENTRICITY": 0.02836527, "INCLINATION": 98.6276, "RA_OF_ASC_NODE": 89.1085, "ARG_OF_PERICENTER": 117.9522, "MEAN_ANOMALY": 245.0678, "EPHEMERIS_TYPE": 0, "CLASSIFICATION_TYPE": "U", "NORAD_CAT_ID": 30043, "ELEMENT_SET_NO": 999, "REV_AT_EPOCH": 97409, "BSTAR": 0.0005891267, "MEAN_MOTION_DOT": 1.987e-05, "MEAN_MOTION_DDOT": 0}, "tle": {"line1": "1 30043U 99025NU  25351.22931842  .00001987  00000+0  58913-3 0  9995", "line2": "2 30043  98.6276  89.1085 0283652 117.9522 245.0678 14.23596953974092"}}, "geometry": {"type": "Point", "coordinates": [155.527705860344, -80.54058539935741]}}, {"type": "Feature", "properties": {"norad_id": 30044, "name": "FENGYUN 1C DEB", "group": "fengyun-1c-debris", "lat": -51.68826559192808, "lon": -77.31659591939143, "alt_km": 782.1656136110969, "timestamp": "2025-12-17T23:38:07.127303+00:00", "meta": {"OBJECT_NAME": "FENGYUN 1C DEB", "OBJECT_ID": "1999-025NV", "EPOCH": "2025-12-17T12:17:34.904256", "MEAN_MOTION": 14.50718672, "ECCENTRICITY": 0.00797176, "INCLINATION": 98.212, "RA_OF_ASC_NODE": 271.6906, "ARG_OF_PERICENTER": 152.3603, "MEAN_ANOMALY": 208.1864, "EPHEMERIS_TYPE": 0, "CLASSIFICATION_TYPE": "U", "NORAD_CAT_ID": 30044, "ELEMENT_SET_NO": 999, "REV_AT_EPOCH": 98108, "BSTAR": 0.0011859709, "MEAN_MOTION_DOT": 4.814e-05, "MEAN_MOTION_DDOT": 0}, "tle": {"line1": "1 30044U 99025NV  25351.51220954  .00004814  00000+0  11860-2 0  9994", "line2": "2 30044  98.2120 271.6906 0079717 152.3603 208.1864 14.50718672981083"}}, "geometry": {"type": "Point", "coordinates": [-77.31659591939143, -51.68826559192808]}}, {"type": "Feature", "properties": {"norad_id": 30045, "name": "FENGYUN 1C DEB", "group": "fengyun-1c-debris", "lat": -74.71645170515683, "lon": 64.04109331934045, "alt_km": 894.9685370455372, "timestamp": "2025-12-17T23:38:07.127313+00:00", "meta": {"OBJECT_NAME": "FENGYUN 1C DEB", "OBJECT_ID": "1999-025NW", "EPOCH": "2025-12-17T14:28:37.280064", "MEAN_MOTION": 14.21645733, "ECCENTRICITY": 0.00945324, "INCLINATION": 99.1792, "RA_OF_ASC_NODE": 27.3648, "ARG_OF_PERICENTER": 99.6119, "MEAN_ANOMALY": 30.8639, "EPHEMERIS_TYPE": 0, "CLASSIFICATION_TYPE": "U", "NORAD_CAT_ID": 30045, "ELEMENT_SET_NO": 999, "REV_AT_EPOCH": 96757, "BSTAR": 0.0015277742, "MEAN_MOTION_DOT": 3.463e-05, "MEAN_MOTION_DDOT": 0}, "tle": {"line1": "1 30045U 99025NW  25351.60320926  .00003463  00000+0  15278-2 0  9991", "line2": "2 30045  99.1792  27.3648 0094532  99.6119  30.8639 14.21645733967578"}}, "geometry": {"type": "Point", "coordinates": [64.04109331934045, -74.71645170515683]}}, {"type": "Feature", "properties": {"norad_id": 30047, "name": "FENGYUN 1C DEB", "group": "fengyun-1c-debris", "lat": 65.37822568911206, "lon": 126.91734693736339, "alt_km": 949.8739373803928, "timestamp": "2025-12-17T23:38:07.127323+00:00", "meta": {"OBJECT_NAME": "FENGYUN 1C DEB", "OBJECT_ID": "1999-025NY", "EPOCH": "2025-12-17T09:47:49.057152", "MEAN_MOTION": 13.94363654, "ECCENTRICITY": 0.01256905, "INCLINATION": 99.9192, "RA_OF_ASC_NODE": 148.7444, "ARG_OF_PERICENTER": 310.3464, "MEAN_ANOMALY": 102.9524, "EPHEMERIS_TYPE": 0, "CLASSIFICATION_TYPE": "U", "NORAD_CAT_ID": 30047, "ELEMENT_SET_NO": 999, "REV_AT_EPOCH": 95981, "BSTAR": 0.00049526801, "MEAN_MOTION_DOT": 6.52e-06, "MEAN_MOTION_DDOT": 0}, "tle": {"line1": "1 30047U 99025NY  25351.40820668  .00000652  00000+0  49527-3 0  9991", "line2": "2 30047  99.9192 148.7444 0125690 310.3464 102.9524 13.94363654959810"}}, "geometry": {"type": "Point", "coordinates": [126.91734693736339, 65.37822568911206]}}]}